{"type": "FeatureCollection", "features": [ {"type": "Feature", "properties": {"norad_id": 36441, "name": "COSMOS 2251 DEB", "group": "cosmos-2251-debris", "lat": 72.44529601975087, "lon": 42.27114246789135, "alt_km": 464.60455288926096, "timestamp": "2025-12-19T10:50:01.598933+00:00", "meta": {"OBJECT_NAME": "COSMOS 2251 DEB", "OBJECT_ID": "1993-036BAQ", "EPOCH": "2025-12-18T05:47:29.908032", "MEAN_MOTION": 15.06846048, "ECCENTRICITY": 0.01082047, "INCLINATION": 73.8354, "RA_OF_ASC_NODE": 338.3111, "ARG_OF_PERICENTER": 76.0854, "MEAN_ANOMALY": 285.2342, "EPHEMERIS_TYPE": 0, "CLASSIFICATION_TYPE": "U", "NORAD_CAT_ID": 36441, "ELEMENT_SET_NO": 999, "REV_AT_EPOCH": 87048, "BSTAR": 0.0004365334, "MEAN_MOTION_DOT": 7.404e-05, "MEAN_MOTION_DDOT": 0}, "tle": {"line1": "1 36441U 93036BAQ 25352.24131838  .00007404  00000+0  43653-3 0  9994", "line2": "2 36441  73.8354 338.3111 0108204  76.0854 285.2342 15.06846048870480"}}, "geometry": {"type": "Point", "coordinates": [42.27114246789135, 72.44529601975087]}}, {"type": "Feature", "properties": {"norad_id": 36442, "name": "COSMOS 2251 DEB", "group": "cosmos-2251-debris", "lat": 70.29158141801464, "lon": 151.38792862694226, "alt_km": 465.0753638054057, "timestamp": "2025-12-19T10:50:01.598944+00:00", "meta": {"OBJECT_NAME": "COSMOS 2251 DEB", "OBJECT_ID": "1993-036BAR", "EPOCH": "2025-12-13T10:09:44.142048", "MEAN_MOTION": 15.30178674, "ECCENTRICITY": 0.00085328, "INCLINATION": 73.9496, "RA_OF_ASC_NODE": 37.7946, "ARG_OF_PERICENTER": 324.6725, "MEAN_ANOMALY": 35.3911, "EPHEMERIS_TYPE": 0, "CLASSIFICATION_TYPE": "U", "NORAD_CAT_ID": 36442, "ELEMENT_SET_NO": 999, "REV_AT_EPOCH": 85926, "BSTAR": 0.0075856442, "MEAN_MOTION_DOT": 0.00228665, "MEAN_MOTION_DDOT": 0}, "tle": {"line1": "1 36442U 93036BAR 25347.42342757  .00228665  00000+0  75856-2 0  9996", "line2": "2 36442  73.9496  37.7946 0008532 324.6725  35.3911 15.30178674859266"}}, "geometry": {"type": "Point", "coordinates": [151.38792862694226, 70.29158141801464]}}, {"type": "Feature", "properties": {"norad_id": 36451, "name": "COSMOS 2251 DEB", "group": "cosmos-2251-debris", "lat": 36.01542997979774, "lon": 131.09966255584354, "alt_km": 694.7722035545621, "timestamp": "2025-12-19T10:50:01.598954+00:00", "meta": {"OBJECT_NAME": "COSMOS 2251 DEB", "OBJECT_ID": "1993-036BBA", "EPOCH": "2025-12-17T15:51:47.903904", "MEAN_MOTION": 14.18761243, "ECCENTRICITY": 0.01833733, "INCLINATION": 73.9538, "RA_OF_ASC_NODE": 326.3887, "ARG_OF_PERICENTER": 149.6881, "MEAN_ANOMALY": 211.5024, "EPHEMERIS_TYPE": 0, "CLASSIFICATION_TYPE": "U", "NORAD_CAT_ID": 36451, "ELEMENT_SET_NO": 999, "REV_AT_EPOCH": 84295, "BSTAR": 0.0004725236, "MEAN_MOTION_DOT": 1.135e-05, "MEAN_MOTION_DDOT": 0}, "tle": {"line1": "1 36451U 93036BBA 25351.66097111  .00001135  00000+0  47252-3 0  9999", "line2": "2 36451  73.9538 326.3887 0183373 149.6881 211.5024 14.18761243842955"}}, "geometry": {"type": "Point", "coordinates": [131.09966255584354, 36.01542997979774]}}, {"type": "Feature", "properties": {"norad_id": 36453, "name": "COSMOS 2251 DEB", "group": "cosmos-2251-debris", "lat": 42.72973043539024, "lon": -55.805483928971064, "alt_km": 716.0991220726701, "timestamp": "2025-12-19T10:50:01.598965+00:00", "meta": {"OBJECT_NAME": "COSMOS 2251 DEB", "OBJECT_ID": "1993-036BBC", "EPOCH": "2025-12-18T09:33:51.275232", "MEAN_MOTION": 14.52645427, "ECCENTRICITY": 0.00705018, "INCLINATION": 73.9232, "RA_OF_ASC_NODE": 141.6428, "ARG_OF_PERICENTER": 43.415, "MEAN_ANOMALY": 346.844, "EPHEMERIS_TYPE": 0, "CLASSIFICATION_TYPE": "U", "NORAD_CAT_ID": 36453, "ELEMENT_SET_NO": 999, "REV_AT_EPOCH": 84550, "BSTAR": 0.00066418144, "MEAN_MOTION_DOT": 2.781e-05, "MEAN_MOTION_DDOT": 0}, "tle": {"line1": "1 36453U 93036BBC 25352.39851013  .00002781  00000+0  66418-3 0  9994", "line2": "2 36453  73.9232 141.6428 0070501  43.4150 346.8440 14.52645427845506"}}, "geometry": {"type": "Point", "coordinates": [-55.805483928971064, 42.72973043539024]}}, {"type": "Feature", "properties": {"norad_id": 36459, "name": "COSMOS 2251 DEB", "group": "cosmos-2251-debris", "lat": 37.02475556205241, "lon": 155.21689729310532, "alt_km": 758.4699552136099, "timestamp": "2025-12-19T10:50:01.598975+00:00", "meta": {"OBJECT_NAME": "COSMOS 2251 DEB", "OBJECT_ID": "1993-036BBJ", "EPOCH": "2025-12-15T06:52:40.994112", "MEAN_MOTION": 14.2642949, "ECCENTRICITY": 0.01133967, "INCLINATION": 74.0484, "RA_OF_ASC_NODE": 355.1955, "ARG_OF_PERICENTER": 90.2624, "MEAN_ANOMALY": 271.1518, "EPHEMERIS_TYPE": 0, "CLASSIFICATION_TYPE": "U", "NORAD_CAT_ID": 36459, "ELEMENT_SET_NO": 999, "REV_AT_EPOCH": 7918, "BSTAR": 0.0010918207, "MEAN_MOTION_DOT": 2.788e-05, "MEAN_MOTION_DDOT": 0}, "tle": {"line1": "1 36459U 93036BBJ 25349.28658558  .00002788  00000+0  10918-2 0  9993", "line2": "2 36459  74.0484 355.1955 0113396  90.2624 271.1518 14.26429490 79186"}}, "geometry": {"type": "Point", "coordinates": [155.21689729310532, 37.02475556205241]}}, {"type": "Feature", "properties": {"norad_id": 36470, "name": "COSMOS 2251 DEB", "group": "cosmos-2251-debris", "lat": -17.31347168821521, "lon": -124.73933702542416, "alt_km": 546.295800675839, "timestamp": "2025-12-19T10:50:01.598986+00:00", "meta": {"OBJECT_NAME": "COSMOS 2251 DEB", "OBJECT_ID": "1993-036BBV", "EPOCH": "2025-12-15T00:13:00.014016", "MEAN_MOTION": 15.07582269, "ECCENTRICITY": 0.00222568, "INCLINATION": 73.8449, "RA_OF_ASC_NODE": 249.6845, "ARG_OF_PERICENTER": 78.1368, "MEAN_ANOMALY": 282.2316, "EPHEMERIS_TYPE": 0, "CLASSIFICATION_TYPE": "U", "NORAD_CAT_ID": 36470, "ELEMENT_SET_NO": 999, "REV_AT_EPOCH": 66128, "BSTAR": 0.0018721064, "MEAN_MOTION_DOT": 0.0002872, "MEAN_MOTION_DDOT": 0}, "tle": {"line1": "1 36470U 93036BBV 25349.00902794  .00028720  00000+0  18721-2 0  9994", "line2": "2 36470  73.8449 249.6845 0022256  78.1368 282.2316 15.07582269661287"}}, "geometry": {"type": "Point", "coordinates": [-124.73933702542416, -17.31347168821521]}}, {"type": "Feature", "properties": {"norad_id": 36528, "name": "COSMOS 2251 DEB", "group": "cosmos-2251-debris", "lat": -4.227206951003387, "lon": 131.776560607295, "alt_km": 853.0621122605307, "timestamp": "2025-12-19T10:50:01.598996+00:00", "meta": {"OBJECT_NAME": "COSMOS 2251 DEB", "OBJECT_ID": "1993-036BCN", "EPOCH": "2025-12-14T16:44:10.040352", "MEAN_MOTION": 14.30658136, "ECCENTRICITY": 0.00847741, "INCLINATION": 74.0159, "RA_OF_ASC_NODE": 141.651, "ARG_OF_PERICENTER": 190.7529, "MEAN_ANOMALY": 169.1813, "EPHEMERIS_TYPE": 0, "CLASSIFICATION_TYPE": "U", "NORAD_CAT_ID": 36528, "ELEMENT_SET_NO": 999, "REV_AT_EPOCH": 64455, "BSTAR": 0.0012089622, "MEAN_MOTION_DOT": 3.261e-05, "MEAN_MOTION_DDOT": 0}, "tle": {"line1": "1 36528U 93036BCN 25348.69733843  .00003261  00000+0  12090-2 0  9995", "line2": "2 36528  74.0159 141.6510 0084774 190.7529 169.1813 14.30658136644553"}}, "geometry": {"type": "Point", "coordinates": [131.776560607295, -4.227206951003387]}}, {"type": "Feature", "properties": {"norad_id": 36533, "name": "COSMOS 2251 DEB", "group": "cosmos-2251-debris", "lat": -68.9973900708685, "lon": -29.478991751674442, "alt_km": 698.3884413877258, "timestamp": "2025-12-19T10:50:01.599006+00:00", "meta": {"OBJECT_NAME": "COSMOS 2251 DEB", "OBJECT_ID": "1993-036BCT", "EPOCH": "2025-12-18T15:26:14.455968", "MEAN_MOTION": 14.498376, "ECCENTRICITY": 0.00491095, "INCLINATION": 74.0122, "RA_OF_ASC_NODE": 103.7273, "ARG_OF_PERICENTER": 251.8091, "MEAN_ANOMALY": 107.772, "EPHEMERIS_TYPE": 0, "CLASSIFICATION_TYPE": "U", "NORAD_CAT_ID": 36533, "ELEMENT_SET_NO": 999, "REV_AT_EPOCH": 84570, "BSTAR": 0.00037617792, "MEAN_MOTION_DOT": 1.445e-05, "MEAN_MOTION_DDOT": 0}, "tle": {"line1": "1 36533U 93036BCT 25352.64322287  .00001445  00000+0  37618-3 0  9993", "line2": "2 36533  74.0122 103.7273 0049109 251.8091 107.7720 14.49837600845700"}}, "geometry": {"type": "Point", "coordinates": [-29.478991751674442, -68.9973900708685]}}, {"type": "Feature", "properties": {"norad_id": 36539, "name": "COSMOS 2251 DEB", "group": "cosmos-2251-debris", "lat": -31.828435165417304, "lon": 32.134351733924596, "alt_km": 715.6297454223677, "timestamp": "2025-12-19T10:50:01.599016+00:00", "meta": {"OBJECT_NAME": "COSMOS 2251 DEB", "OBJECT_ID": "1993-036BCZ", "EPOCH": "2025-12-18T13:35:53.739744", "MEAN_MOTION": 14.59336837, "ECCENTRICITY": 0.00268254, "INCLINATION": 74.0238, "RA_OF_ASC_NODE": 44.0646, "ARG_OF_PERICENTER": 188.3183, "MEAN_ANOMALY": 171.7542, "EPHEMERIS_TYPE": 0, "CLASSIFICATION_TYPE": "U", "NORAD_CAT_ID": 36539, "ELEMENT_SET_NO": 999, "REV_AT_EPOCH": 84032, "BSTAR": 0.00046364117, "MEAN_MOTION_DOT": 2.174e-05, "MEAN_MOTION_DDOT": 0}, "tle": {"line1": "1 36539U 93036BCZ 25352.56659421  .00002174  00000+0  46364-3 0  9991", "line2": "2 36539  74.0238  44.0646 0026825 188.3183 171.7542 14.59336837840324"}}, "geometry": {"type": "Point", "coordinates": [32.134351733924596, -31.828435165417304]}}, {"type": "Feature", "properties": {"norad_id": 36540, "name": "COSMOS 2251 DEB", "group": "cosmos-2251-debris", "lat": -73.99050848951836, "lon": 74.31324156196145, "alt_km": 695.9346185150944, "timestamp": "2025-12-19T10:50:01.599027+00:00", "meta": {"OBJECT_NAME": "COSMOS 2251 DEB", "OBJECT_ID": "1993-036BDA", "EPOCH": "2025-12-17T13:09:26.426592", "MEAN_MOTION": 14.58526935, "ECCENTRICITY": 0.00148115, "INCLINATION": 74.0276, "RA_OF_ASC_NODE": 171.3586, "ARG_OF_PERICENTER": 241.3475, "MEAN_ANOMALY": 118.62, "EPHEMERIS_TYPE": 0, "CLASSIFICATION_TYPE": "U", "NORAD_CAT_ID": 36540, "ELEMENT_SET_NO": 999, "REV_AT_EPOCH": 86080, "BSTAR": 0.0008456948, "MEAN_MOTION_DOT": 3.909e-05, "MEAN_MOTION_DDOT": 0}, "tle": {"line1": "1 36540U 93036BDA 25351.54822253  .00003909  00000+0  84569-3 0  9991", "line2": "2 36540  74.0276 171.3586 0014811 241.3475 118.6200 14.58526935860806"}}, "geometry": {"type": "Point", "coordinates": [74.31324156196145, -73.99050848951836]}}]}